[{"OBJECT_NAME":"STARLINK-37190","OBJECT_ID":"2026-063S","EPOCH":"2026-04-24T11:09:19.019808","MEAN_MOTION":15.80831549,"ECCENTRICITY":0.00014152,"INCLINATION":97.2841,"RA_OF_ASC_NODE":256.5988,"ARG_OF_PERICENTER":94.0442,"MEAN_ANOMALY":266.0988,"EPHEMERIS_TYPE":0,"CLASSIFICATION_TYPE":"U","NORAD_CAT_ID":68396,"ELEMENT_SET_NO":999,"REV_AT_EPOCH":485,"BSTAR":0.00044791343,"MEAN_MOTION_DOT":0.00086572,"MEAN_MOTION_DDOT":0},{"OBJECT_NAME":"STARLINK-37194","OBJECT_ID":"2026-063T","EPOCH":"2026-04-24T08:35:10.562496","MEAN_MOTION":15.75211371,"ECCENTRICITY":6.314e-5,"INCLINATION":97.2839,"RA_OF_ASC_NODE":256.4369,"ARG_OF_PERICENTER":57.9177,"MEAN_ANOMALY":302.215,"EPHEMERIS_TYPE":0,"CLASSIFICATION_TYPE":"U","NORAD_CAT_ID":68397,"ELEMENT_SET_NO":999,"REV_AT_EPOCH":483,"BSTAR":0.00094857062,"MEAN_MOTION_DOT":0.00143895,"MEAN_MOTION_DDOT":0},{"OBJECT_NAME":"STARLINK-37220","OBJECT_ID":"2026-063U","EPOCH":"2026-04-24T17:58:17.179680","MEAN_MOTION":15.75242564,"ECCENTRICITY":0.00013977,"INCLINATION":97.2854,"RA_OF_ASC_NODE":256.8251,"ARG_OF_PERICENTER":58.8185,"MEAN_ANOMALY":301.3217,"EPHEMERIS_TYPE":0,"CLASSIFICATION_TYPE":"U","NORAD_CAT_ID":68398,"ELEMENT_SET_NO":999,"REV_AT_EPOCH":489,"BSTAR":0.0012018556,"MEAN_MOTION_DOT":0.00183454,"MEAN_MOTION_DDOT":0},{"OBJECT_NAME":"STARLINK-37187","OBJECT_ID":"2026-063V","EPOCH":"2026-04-24T08:03:45.470880","MEAN_MOTION":15.80877341,"ECCENTRICITY":0.00010593,"INCLINATION":97.2847,"RA_OF_ASC_NODE":256.4683,"ARG_OF_PERICENTER":62.3921,"MEAN_ANOMALY":297.7455,"EPHEMERIS_TYPE":0,"CLASSIFICATION_TYPE":"U","NORAD_CAT_ID":68399,"ELEMENT_SET_NO":999,"REV_AT_EPOCH":483,"BSTAR":0.00091589186,"MEAN_MOTION_DOT":0.00179451,"MEAN_MOTION_DDOT":0},{"OBJECT_NAME":"STARLINK-36235","OBJECT_ID":"2026-063W","EPOCH":"2026-04-25T00:00:02.999808","MEAN_MOTION":15.75219632,"ECCENTRICITY":0.00016013,"INCLINATION":97.2844,"RA_OF_ASC_NODE":257.1222,"ARG_OF_PERICENTER":87.2754,"MEAN_ANOMALY":336.5157,"EPHEMERIS_TYPE":0,"CLASSIFICATION_TYPE":"U","NORAD_CAT_ID":68400,"ELEMENT_SET_NO":999,"REV_AT_EPOCH":591,"BSTAR":-0.00092044641,"MEAN_MOTION_DOT":-0.00135447,"MEAN_MOTION_DDOT":0},{"OBJECT_NAME":"STARLINK-37175","OBJECT_ID":"2026-063X","EPOCH":"2026-04-24T18:12:00.217440","MEAN_MOTION":15.75275482,"ECCENTRICITY":0.00014816,"INCLINATION":97.2859,"RA_OF_ASC_NODE":256.8121,"ARG_OF_PERICENTER":102.6775,"MEAN_ANOMALY":257.4656,"EPHEMERIS_TYPE":0,"CLASSIFICATION_TYPE":"U","NORAD_CAT_ID":68401,"ELEMENT_SET_NO":999,"REV_AT_EPOCH":489,"BSTAR":0.0015772244,"MEAN_MOTION_DOT":0.00242832,"MEAN_MOTION_DDOT":0},{"OBJECT_NAME":"STARLINK-36360","OBJECT_ID":"2026-063Y","EPOCH":"2026-04-24T13:06:34.191648","MEAN_MOTION":15.75249505,"ECCENTRICITY":6.672e-5,"INCLINATION":97.2837,"RA_OF_ASC_NODE":256.6395,"ARG_OF_PERICENTER":38.3285,"MEAN_ANOMALY":321.8027,"EPHEMERIS_TYPE":0,"CLASSIFICATION_TYPE":"U","NORAD_CAT_ID":68402,"ELEMENT_SET_NO":999,"REV_AT_EPOCH":486,"BSTAR":0.0011891241,"MEAN_MOTION_DOT":0.00181523,"MEAN_MOTION_DDOT":0},{"OBJECT_NAME":"STARLINK-37218","OBJECT_ID":"2026-063Z","EPOCH":"2026-04-25T06:00:02.000160","MEAN_MOTION":15.75177872,"ECCENTRICITY":9.875e-5,"INCLINATION":97.2841,"RA_OF_ASC_NODE":257.4254,"ARG_OF_PERICENTER":87.0433,"MEAN_ANOMALY":43.3827,"EPHEMERIS_TYPE":0,"CLASSIFICATION_TYPE":"U","NORAD_CAT_ID":68403,"ELEMENT_SET_NO":999,"REV_AT_EPOCH":595,"BSTAR":-0.00019749927,"MEAN_MOTION_DOT":-0.0002947,"MEAN_MOTION_DDOT":0},{"OBJECT_NAME":"STARLINK-37188","OBJECT_ID":"2026-063AA","EPOCH":"2026-04-24T11:00:39.182976","MEAN_MOTION":15.80916374,"ECCENTRICITY":0.00010692,"INCLINATION":97.2847,"RA_OF_ASC_NODE":256.6076,"ARG_OF_PERICENTER":64.5502,"MEAN_ANOMALY":295.5877,"EPHEMERIS_TYPE":0,"CLASSIFICATION_TYPE":"U","NORAD_CAT_ID":68404,"ELEMENT_SET_NO":999,"REV_AT_EPOCH":485,"BSTAR":0.0013125173,"MEAN_MOTION_DOT":0.00260098,"MEAN_MOTION_DDOT":0},{"OBJECT_NAME":"SHIYAN-33","OBJECT_ID":"2026-064A","EPOCH":"2026-04-25T06:04:03.009504","MEAN_MOTION":15.23414268,"ECCENTRICITY":0.00155057,"INCLINATION":97.4635,"RA_OF_ASC_NODE":191.0466,"ARG_OF_PERICENTER":129.5069,"MEAN_ANOMALY":230.7542,"EPHEMERIS_TYPE":0,"CLASSIFICATION_TYPE":"U","NORAD_CAT_ID":68405,"ELEMENT_SET_NO":999,"REV_AT_EPOCH":443,"BSTAR":0.00022536541,"MEAN_MOTION_DOT":5.31e-5,"MEAN_MOTION_DDOT":0},{"OBJECT_NAME":"LPNTSAT-001 (IOD-1)","OBJECT_ID":"2026-065A","EPOCH":"2026-04-23T15:26:51.654624","MEAN_MOTION":15.18357645,"ECCENTRICITY":0.00166989,"INCLINATION":97.4089,"RA_OF_ASC_NODE":355.2945,"ARG_OF_PERICENTER":188.6279,"MEAN_ANOMALY":171.4671,"EPHEMERIS_TYPE":0,"CLASSIFICATION_TYPE":"U","NORAD_CAT_ID":68408,"ELEMENT_SET_NO":999,"REV_AT_EPOCH":398,"BSTAR":0.00010083876,"MEAN_MOTION_DOT":2.01e-5,"MEAN_MOTION_DDOT":0},{"OBJECT_NAME":"LPNTSAT-002 (IOD-2)","OBJECT_ID":"2026-065B","EPOCH":"2026-04-24T05:39:14.282208","MEAN_MOTION":15.18519057,"ECCENTRICITY":0.00139404,"INCLINATION":97.4075,"RA_OF_ASC_NODE":355.8724,"ARG_OF_PERICENTER":180.692,"MEAN_ANOMALY":179.4298,"EPHEMERIS_TYPE":0,"CLASSIFICATION_TYPE":"U","NORAD_CAT_ID":68409,"ELEMENT_SET_NO":999,"REV_AT_EPOCH":405,"BSTAR":0.0002502878,"MEAN_MOTION_DOT":5.11e-5,"MEAN_MOTION_DDOT":0},{"OBJECT_NAME":"XINZHENGCHENG-01","OBJECT_ID":"2026-066A","EPOCH":"2026-04-25T06:02:11.816160","MEAN_MOTION":14.88358392,"ECCENTRICITY":0.00276029,"INCLINATION":84.9637,"RA_OF_ASC_NODE":261.419,"ARG_OF_PERICENTER":79.0508,"MEAN_ANOMALY":281.3819,"EPHEMERIS_TYPE":0,"CLASSIFICATION_TYPE":"U","NORAD_CAT_ID":68412,"ELEMENT_SET_NO":999,"REV_AT_EPOCH":385,"BSTAR":4.8843696e-5,"MEAN_MOTION_DOT":4.86e-6,"MEAN_MOTION_DDOT":0},{"OBJECT_NAME":"TRANSPORTER-16 OBJECT A","OBJECT_ID":"2026-067A","EPOCH":"2026-04-24T08:12:50.109696","MEAN_MOTION":15.18758464,"ECCENTRICITY":0.00042347,"INCLINATION":97.4508,"RA_OF_ASC_NODE":73.6379,"ARG_OF_PERICENTER":95.7846,"MEAN_ANOMALY":264.3872,"EPHEMERIS_TYPE":0,"CLASSIFICATION_TYPE":"U","NORAD_CAT_ID":68416,"ELEMENT_SET_NO":999,"REV_AT_EPOCH":377,"BSTAR":0.00027349012,"MEAN_MOTION_DOT":5.617e-5,"MEAN_MOTION_DDOT":0}]
