STARLINK-37190          
1 68396U 26063S   26114.46480347  .00086572  00000+0  44791-3 0  9994
2 68396  97.2841 256.5988 0001415  94.0442 266.0988 15.80831549  4852
STARLINK-37194          
1 68397U 26063T   26114.35776114  .00143895  00000+0  94857-3 0  9993
2 68397  97.2839 256.4369 0000631  57.9177 302.2150 15.75211371  4835
STARLINK-37220          
1 68398U 26063U   26114.74880995  .00183454  00000+0  12019-2 0  9994
2 68398  97.2854 256.8251 0001397  58.8185 301.3217 15.75242564  4894
STARLINK-37187          
1 68399U 26063V   26114.33594295  .00179451  00000+0  91589-3 0  9997
2 68399  97.2847 256.4683 0001059  62.3921 297.7455 15.80877341  4834
STARLINK-36235          
1 68400U 26063W   26115.00003472 -.00135447  00000+0 -92045-3 0  9994
2 68400  97.2844 257.1222 0001601  87.2754 336.5157 15.75219632  5912
STARLINK-37175          
1 68401U 26063X   26114.75833585  .00242832  00000+0  15772-2 0  9998
2 68401  97.2859 256.8121 0001481 102.6775 257.4656 15.75275482  4890
STARLINK-36360          
1 68402U 26063Y   26114.54622907  .00181523  00000+0  11891-2 0  9997
2 68402  97.2837 256.6395 0000667  38.3285 321.8027 15.75249505  4866
STARLINK-37218          
1 68403U 26063Z   26115.25002315 -.00029470  00000+0 -19750-3 0  9999
2 68403  97.2841 257.4254 0000987  87.0433  43.3827 15.75177872  5958
STARLINK-37188          
1 68404U 26063AA  26114.45878684  .00260098  00000+0  13125-2 0  9991
2 68404  97.2847 256.6076 0001069  64.5502 295.5877 15.80916374  4855
SHIYAN-33               
1 68405U 26064A   26115.25281261  .00005310  00000+0  22537-3 0  9993
2 68405  97.4635 191.0466 0015505 129.5069 230.7542 15.23414268  4434
LPNTSAT-001 (IOD-1)     
1 68408U 26065A   26113.64365341  .00002010  00000+0  10084-3 0  9998
2 68408  97.4089 355.2945 0016698 188.6279 171.4671 15.18357645  3981
LPNTSAT-002 (IOD-2)     
1 68409U 26065B   26114.23558197  .00005110  00000+0  25029-3 0  9997
2 68409  97.4075 355.8724 0013940 180.6920 179.4298 15.18519057  4059
XINZHENGCHENG-01        
1 68412U 26066A   26115.25152565  .00000486  00000+0  48844-4 0  9996
2 68412  84.9637 261.4190 0027602  79.0508 281.3819 14.88358392  3858
TRANSPORTER-16 OBJECT A 
1 68416U 26067A   26114.34224664  .00005617  00000+0  27349-3 0  9997
2 68416  97.4508  73.6379 0004234  95.7846 264.3872 15.18758464  3775
